{
  "type": "FeatureCollection",
  "features": [
    {
      "type": "Feature",
      "properties": {
        "norad_id": 33791,
        "name": "COSMOS 2251 DEB",
        "group": "cosmos-2251-debris",
        "lat": -14.559474054384614,
        "lon": -151.019935148801,
        "alt_km": 732.9251342553171,
        "timestamp": "2025-12-19T16:54:44.655616+00:00",
        "meta_object_name": "COSMOS 2251 DEB",
        "meta_object_id": "1993-036AG",
        "meta_epoch": "2025-12-19T06:22:57.674784",
        "meta_mean_motion": 14.43155982,
        "meta_eccentricity": 0.00302978,
        "meta_inclination": 74.1749,
        "meta_ra_of_asc_node": 25.5631,
        "meta_arg_of_pericenter": 221.6448,
        "meta_mean_anomaly": 215.0651,
        "meta_ephemeris_type": 0,
        "meta_classification_type": "U",
        "meta_norad_cat_id": 33791,
        "meta_element_set_no": 999,
        "meta_rev_at_epoch": 88146,
        "meta_bstar": 0.00058565018,
        "meta_mean_motion_dot": 1.953e-05,
        "meta_mean_motion_ddot": 0,
        "tle_line1": "1 33791U 93036AG  25353.26594531  .00001953  00000+0  58565-3 0  9996",
        "tle_line2": "2 33791  74.1749  25.5631 0030297 221.6448 215.0651 14.43155982881466"
      },
      "geometry": {
        "type": "Point",
        "coordinates": [
          -151.019935148801,
          -14.559474054384614
        ]
      }
    },
    {
      "type": "Feature",
      "properties": {
        "norad_id": 33792,
        "name": "COSMOS 2251 DEB",
        "group": "cosmos-2251-debris",
        "lat": -36.73937739930401,
        "lon": -38.22679637608162,
        "alt_km": 1003.6634518034925,
        "timestamp": "2025-12-19T16:54:44.655627+00:00",
        "meta_object_name": "COSMOS 2251 DEB",
        "meta_object_id": "1993-036AH",
        "meta_epoch": "2025-12-19T05:03:54.497952",
        "meta_mean_motion": 13.45833743,
        "meta_eccentricity": 0.04274402,
        "meta_inclination": 73.9011,
        "meta_ra_of_asc_node": 335.0098,
        "meta_arg_of_pericenter": 38.4695,
        "meta_mean_anomaly": 57.0376,
        "meta_ephemeris_type": 0,
        "meta_classification_type": "U",
        "meta_norad_cat_id": 33792,
        "meta_element_set_no": 999,
        "meta_rev_at_epoch": 82529,
        "meta_bstar": 0.0008044105,
        "meta_mean_motion_dot": 8.14e-06,
        "meta_mean_motion_ddot": 0,
        "tle_line1": "1 33792U 93036AH  25353.21104743  .00000814  00000+0  80441-3 0  9997",
        "tle_line2": "2 33792  73.9011 335.0098 0427440  38.4695  57.0376 13.45833743825296"
      },
      "geometry": {
        "type": "Point",
        "coordinates": [
          -38.22679637608162,
          -36.73937739930401
        ]
      }
    },
    {
      "type": "Feature",
      "properties": {
        "norad_id": 33793,
        "name": "COSMOS 2251 DEB",
        "group": "cosmos-2251-debris",
        "lat": 51.019053491426355,
        "lon": 158.054223338346,
        "alt_km": 828.7833866425008,
        "timestamp": "2025-12-19T16:54:44.655638+00:00",
        "meta_object_name": "COSMOS 2251 DEB",
        "meta_object_id": "1993-036AJ",
        "meta_epoch": "2025-12-19T04:03:31.274208",
        "meta_mean_motion": 14.27743108,
        "meta_eccentricity": 0.0078736,
        "meta_inclination": 73.9804,
        "meta_ra_of_asc_node": 138.2322,
        "meta_arg_of_pericenter": 287.0679,
        "meta_mean_anomaly": 254.5819,
        "meta_ephemeris_type": 0,
        "meta_classification_type": "U",
        "meta_norad_cat_id": 33793,
        "meta_element_set_no": 999,
        "meta_rev_at_epoch": 87298,
        "meta_bstar": 0.00054096377,
        "meta_mean_motion_dot": 1.354e-05,
        "meta_mean_motion_ddot": 0,
        "tle_line1": "1 33793U 93036AJ  25353.16911197  .00001354  00000+0  54096-3 0  9998",
        "tle_line2": "2 33793  73.9804 138.2322 0078736 287.0679 254.5819 14.27743108872984"
      },
      "geometry": {
        "type": "Point",
        "coordinates": [
          158.054223338346,
          51.019053491426355
        ]
      }
    },
    {
      "type": "Feature",
      "properties": {
        "norad_id": 33795,
        "name": "COSMOS 2251 DEB",
        "group": "cosmos-2251-debris",
        "lat": 27.603585933645146,
        "lon": -126.15575865545668,
        "alt_km": 526.7276175215293,
        "timestamp": "2025-12-19T16:54:44.655649+00:00",
        "meta_object_name": "COSMOS 2251 DEB",
        "meta_object_id": "1993-036AL",
        "meta_epoch": "2025-12-19T05:21:38.231424",
        "meta_mean_motion": 15.05725957,
        "meta_eccentricity": 0.00306709,
        "meta_inclination": 74.0325,
        "meta_ra_of_asc_node": 63.4412,
        "meta_arg_of_pericenter": 144.5876,
        "meta_mean_anomaly": 278.4863,
        "meta_ephemeris_type": 0,
        "meta_classification_type": "U",
        "meta_norad_cat_id": 33795,
        "meta_element_set_no": 999,
        "meta_rev_at_epoch": 90119,
        "meta_bstar": 0.00085916484,
        "meta_mean_motion_dot": 0.00012545,
        "meta_mean_motion_ddot": 0,
        "tle_line1": "1 33795U 93036AL  25353.22335916  .00012545  00000+0  85916-3 0  9995",
        "tle_line2": "2 33795  74.0325  63.4412 0030670 144.5876 278.4863 15.05725957901195"
      },
      "geometry": {
        "type": "Point",
        "coordinates": [
          -126.15575865545668,
          27.603585933645146
        ]
      }
    },
    {
      "type": "Feature",
      "properties": {
        "norad_id": 33797,
        "name": "COSMOS 2251 DEB",
        "group": "cosmos-2251-debris",
        "lat": -33.00870886372396,
        "lon": -147.56820903667278,
        "alt_km": 718.0504131838479,
        "timestamp": "2025-12-19T16:54:44.655659+00:00",
        "meta_object_name": "COSMOS 2251 DEB",
        "meta_object_id": "1993-036AN",
        "meta_epoch": "2025-12-19T04:42:00.554400",
        "meta_mean_motion": 14.57869164,
        "meta_eccentricity": 0.00604657,
        "meta_inclination": 74.0466,
        "meta_ra_of_asc_node": 22.6891,
        "meta_arg_of_pericenter": 108.6198,
        "meta_mean_anomaly": 315.6458,
        "meta_ephemeris_type": 0,
        "meta_classification_type": "U",
        "meta_norad_cat_id": 33797,
        "meta_element_set_no": 999,
        "meta_rev_at_epoch": 89079,
        "meta_bstar": 0.00026459825,
        "meta_mean_motion_dot": 1.213e-05,
        "meta_mean_motion_ddot": 0,
        "tle_line1": "1 33797U 93036AN  25353.19583975  .00001213  00000+0  26460-3 0  9992",
        "tle_line2": "2 33797  74.0466  22.6891 0060465 108.6198 315.6458 14.57869164890796"
      },
      "geometry": {
        "type": "Point",
        "coordinates": [
          -147.56820903667278,
          -33.00870886372396
        ]
      }
    },
    {
      "type": "Feature",
      "properties": {
        "norad_id": 33798,
        "name": "COSMOS 2251 DEB",
        "group": "cosmos-2251-debris",
        "lat": 55.907380168091066,
        "lon": -82.09828689279837,
        "alt_km": 772.3057417613645,
        "timestamp": "2025-12-19T16:54:44.655670+00:00",
        "meta_object_name": "COSMOS 2251 DEB",
        "meta_object_id": "1993-036AP",
        "meta_epoch": "2025-12-18T19:04:37.157664",
        "meta_mean_motion": 14.44621817,
        "meta_eccentricity": 0.00924199,
        "meta_inclination": 74.0289,
        "meta_ra_of_asc_node": 124.6267,
        "meta_arg_of_pericenter": 244.6799,
        "meta_mean_anomaly": 187.0164,
        "meta_ephemeris_type": 0,
        "meta_classification_type": "U",
        "meta_norad_cat_id": 33798,
        "meta_element_set_no": 999,
        "meta_rev_at_epoch": 88681,
        "meta_bstar": 0.00013907295,
        "meta_mean_motion_dot": 4.78e-06,
        "meta_mean_motion_ddot": 0,
        "tle_line1": "1 33798U 93036AP  25352.79487451  .00000478  00000+0  13907-3 0  9994",
        "tle_line2": "2 33798  74.0289 124.6267 0092419 244.6799 187.0164 14.44621817886812"
      },
      "geometry": {
        "type": "Point",
        "coordinates": [
          -82.09828689279837,
          55.907380168091066
        ]
      }
    },
    {
      "type": "Feature",
      "properties": {
        "norad_id": 33799,
        "name": "COSMOS 2251 DEB",
        "group": "cosmos-2251-debris",
        "lat": 16.48334247294382,
        "lon": -116.78683725365437,
        "alt_km": 616.1767623602918,
        "timestamp": "2025-12-19T16:54:44.655683+00:00",
        "meta_object_name": "COSMOS 2251 DEB",
        "meta_object_id": "1993-036AQ",
        "meta_epoch": "2025-12-18T14:31:36.155712",
        "meta_mean_motion": 14.79685548,
        "meta_eccentricity": 0.00228868,
        "meta_inclination": 74.0325,
        "meta_ra_of_asc_node": 70.2372,
        "meta_arg_of_pericenter": 138.8452,
        "meta_mean_anomaly": 289.8067,
        "meta_ephemeris_type": 0,
        "meta_classification_type": "U",
        "meta_norad_cat_id": 33799,
        "meta_element_set_no": 999,
        "meta_rev_at_epoch": 88898,
        "meta_bstar": 0.00085660309,
        "meta_mean_motion_dot": 6.433e-05,
        "meta_mean_motion_ddot": 0,
        "tle_line1": "1 33799U 93036AQ  25352.60527958  .00006433  00000+0  85660-3 0  9994",
        "tle_line2": "2 33799  74.0325  70.2372 0022886 138.8452 289.8067 14.79685548888980"
      },
      "geometry": {
        "type": "Point",
        "coordinates": [
          -116.78683725365437,
          16.48334247294382
        ]
      }
    }
  ]
}